{
  "type": "FeatureCollection",
  "features": [
    {
      "type": "Feature",
      "properties": {
        "norad_id": 35717,
        "name": "COSMOS 2251 DEB",
        "group": "cosmos-2251-debris",
        "lat": -45.53278796213109,
        "lon": 73.1343712571326,
        "alt_km": 803.6201415538508,
        "timestamp": "2025-12-02T10:50:47.672349+00:00",
        "meta_object_name": "COSMOS 2251 DEB",
        "meta_object_id": "1993-036AQN",
        "meta_epoch": "2025-11-20T02:19:42.985056",
        "meta_mean_motion": 14.38259242,
        "meta_eccentricity": 0.00762455,
        "meta_inclination": 74.1612,
        "meta_ra_of_asc_node": 258.9085,
        "meta_arg_of_pericenter": 125.8129,
        "meta_mean_anomaly": 235.0143,
        "meta_ephemeris_type": 0,
        "meta_classification_type": "U",
        "meta_norad_cat_id": 35717,
        "meta_element_set_no": 999,
        "meta_rev_at_epoch": 73774,
        "meta_bstar": 0.0010708512,
        "meta_mean_motion_dot": 3.344e-05,
        "meta_mean_motion_ddot": 0,
        "tle_line1": "1 35717U 93036AQN 25324.09702529  .00003344  00000+0  10709-2 0  9996",
        "tle_line2": "2 35717  74.1612 258.9085 0076245 125.8129 235.0143 14.38259242737741"
      },
      "geometry": {
        "type": "Point",
        "coordinates": [
          73.1343712571326,
          -45.53278796213109
        ]
      }
    },
    {
      "type": "Feature",
      "properties": {
        "norad_id": 35718,
        "name": "COSMOS 2251 DEB",
        "group": "cosmos-2251-debris",
        "lat": -57.96552306349536,
        "lon": 122.64229548580435,
        "alt_km": 674.5462405176213,
        "timestamp": "2025-12-02T10:50:47.672359+00:00",
        "meta_object_name": "COSMOS 2251 DEB",
        "meta_object_id": "1993-036AQP",
        "meta_epoch": "2025-11-28T18:49:36.496416",
        "meta_mean_motion": 14.68279459,
        "meta_eccentricity": 0.00123436,
        "meta_inclination": 74.0315,
        "meta_ra_of_asc_node": 156.9668,
        "meta_arg_of_pericenter": 206.7375,
        "meta_mean_anomaly": 153.316,
        "meta_ephemeris_type": 0,
        "meta_classification_type": "U",
        "meta_norad_cat_id": 35718,
        "meta_element_set_no": 999,
        "meta_rev_at_epoch": 65635,
        "meta_bstar": 0.0013999458,
        "meta_mean_motion_dot": 8.062e-05,
        "meta_mean_motion_ddot": 0,
        "tle_line1": "1 35718U 93036AQP 25332.78445019  .00008062  00000+0  13999-2 0  9996",
        "tle_line2": "2 35718  74.0315 156.9668 0012343 206.7375 153.3160 14.68279459656359"
      },
      "geometry": {
        "type": "Point",
        "coordinates": [
          122.64229548580435,
          -57.96552306349536
        ]
      }
    },
    {
      "type": "Feature",
      "properties": {
        "norad_id": 35721,
        "name": "COSMOS 2251 DEB",
        "group": "cosmos-2251-debris",
        "lat": 32.730932313815735,
        "lon": 6.018721980040739,
        "alt_km": 873.9757918010955,
        "timestamp": "2025-12-02T10:50:47.672370+00:00",
        "meta_object_name": "COSMOS 2251 DEB",
        "meta_object_id": "1993-036AQS",
        "meta_epoch": "2025-11-29T21:54:16.243200",
        "meta_mean_motion": 14.34192363,
        "meta_eccentricity": 0.01464404,
        "meta_inclination": 73.9503,
        "meta_ra_of_asc_node": 201.3539,
        "meta_arg_of_pericenter": 350.3358,
        "meta_mean_anomaly": 9.498,
        "meta_ephemeris_type": 0,
        "meta_classification_type": "U",
        "meta_norad_cat_id": 35721,
        "meta_element_set_no": 999,
        "meta_rev_at_epoch": 57605,
        "meta_bstar": 0.0014885779,
        "meta_mean_motion_dot": 4.68e-05,
        "meta_mean_motion_ddot": 0,
        "tle_line1": "1 35721U 93036AQS 25333.91268800  .00004680  00000+0  14886-2 0  9995",
        "tle_line2": "2 35721  73.9503 201.3539 0146440 350.3358   9.4980 14.34192363576055"
      },
      "geometry": {
        "type": "Point",
        "coordinates": [
          6.018721980040739,
          32.730932313815735
        ]
      }
    },
    {
      "type": "Feature",
      "properties": {
        "norad_id": 35724,
        "name": "COSMOS 2251 DEB",
        "group": "cosmos-2251-debris",
        "lat": -69.09410670670978,
        "lon": -86.29492547819088,
        "alt_km": 746.365635401813,
        "timestamp": "2025-12-02T10:50:47.672380+00:00",
        "meta_object_name": "COSMOS 2251 DEB",
        "meta_object_id": "1993-036AQV",
        "meta_epoch": "2025-11-30T08:09:18.426240",
        "meta_mean_motion": 14.58149733,
        "meta_eccentricity": 0.00590888,
        "meta_inclination": 74.0317,
        "meta_ra_of_asc_node": 326.2795,
        "meta_arg_of_pericenter": 123.6188,
        "meta_mean_anomaly": 237.0635,
        "meta_ephemeris_type": 0,
        "meta_classification_type": "U",
        "meta_norad_cat_id": 35724,
        "meta_element_set_no": 999,
        "meta_rev_at_epoch": 87348,
        "meta_bstar": 0.00024156118,
        "meta_mean_motion_dot": 1.11e-05,
        "meta_mean_motion_ddot": 0,
        "tle_line1": "1 35724U 93036AQV 25334.33979660  .00001110  00000+0  24156-3 0  9995",
        "tle_line2": "2 35724  74.0317 326.2795 0059088 123.6188 237.0635 14.58149733873489"
      },
      "geometry": {
        "type": "Point",
        "coordinates": [
          -86.29492547819088,
          -69.09410670670978
        ]
      }
    },
    {
      "type": "Feature",
      "properties": {
        "norad_id": 35759,
        "name": "COSMOS 2251 DEB",
        "group": "cosmos-2251-debris",
        "lat": -66.73326992135269,
        "lon": 97.56038543974556,
        "alt_km": 696.8570567514626,
        "timestamp": "2025-12-02T10:50:47.672391+00:00",
        "meta_object_name": "COSMOS 2251 DEB",
        "meta_object_id": "1993-036ARD",
        "meta_epoch": "2025-12-01T23:51:26.529120",
        "meta_mean_motion": 14.64826285,
        "meta_eccentricity": 0.0076661,
        "meta_inclination": 74.0384,
        "meta_ra_of_asc_node": 236.7093,
        "meta_arg_of_pericenter": 357.4263,
        "meta_mean_anomaly": 2.6498,
        "meta_ephemeris_type": 0,
        "meta_classification_type": "U",
        "meta_norad_cat_id": 35759,
        "meta_element_set_no": 999,
        "meta_rev_at_epoch": 65978,
        "meta_bstar": 0.00043109,
        "meta_mean_motion_dot": 2.37e-05,
        "meta_mean_motion_ddot": 0,
        "tle_line1": "1 35759U 93036ARD 25335.99405705  .00002370  00000+0  43109-3 0  9998",
        "tle_line2": "2 35759  74.0384 236.7093 0076661 357.4263   2.6498 14.64826285659783"
      },
      "geometry": {
        "type": "Point",
        "coordinates": [
          97.56038543974556,
          -66.73326992135269
        ]
      }
    },
    {
      "type": "Feature",
      "properties": {
        "norad_id": 35771,
        "name": "COSMOS 2251 DEB",
        "group": "cosmos-2251-debris",
        "lat": 18.845890005730812,
        "lon": -26.033327541559494,
        "alt_km": 904.9252430085116,
        "timestamp": "2025-12-02T10:50:47.672401+00:00",
        "meta_object_name": "COSMOS 2251 DEB",
        "meta_object_id": "1993-036ARR",
        "meta_epoch": "2025-12-01T22:51:30.244032",
        "meta_mean_motion": 14.12926683,
        "meta_eccentricity": 0.0231935,
        "meta_inclination": 74.1552,
        "meta_ra_of_asc_node": 329.2812,
        "meta_arg_of_pericenter": 270.0606,
        "meta_mean_anomaly": 87.396,
        "meta_ephemeris_type": 0,
        "meta_classification_type": "U",
        "meta_norad_cat_id": 35771,
        "meta_element_set_no": 999,
        "meta_rev_at_epoch": 82708,
        "meta_bstar": 0.0067662,
        "meta_mean_motion_dot": 0.00016281,
        "meta_mean_motion_ddot": 0,
        "tle_line1": "1 35771U 93036ARR 25335.95243338  .00016281  00000+0  67662-2 0  9995",
        "tle_line2": "2 35771  74.1552 329.2812 0231935 270.0606  87.3960 14.12926683827080"
      },
      "geometry": {
        "type": "Point",
        "coordinates": [
          -26.033327541559494,
          18.845890005730812
        ]
      }
    },
    {
      "type": "Feature",
      "properties": {
        "norad_id": 35773,
        "name": "COSMOS 2251 DEB",
        "group": "cosmos-2251-debris",
        "lat": -59.32597271994069,
        "lon": -150.53374338568548,
        "alt_km": 687.7592331425258,
        "timestamp": "2025-12-02T10:50:47.672411+00:00",
        "meta_object_name": "COSMOS 2251 DEB",
        "meta_object_id": "1993-036ART",
        "meta_epoch": "2025-12-02T01:31:41.588256",
        "meta_mean_motion": 14.61972013,
        "meta_eccentricity": 0.0046155,
        "meta_inclination": 74.008,
        "meta_ra_of_asc_node": 1.2963,
        "meta_arg_of_pericenter": 164.2826,
        "meta_mean_anomaly": 195.9787,
        "meta_ephemeris_type": 0,
        "meta_classification_type": "U",
        "meta_norad_cat_id": 35773,
        "meta_element_set_no": 999,
        "meta_rev_at_epoch": 86683,
        "meta_bstar": 0.00062057,
        "meta_mean_motion_dot": 3.127e-05,
        "meta_mean_motion_ddot": 0,
        "tle_line1": "1 35773U 93036ART 25336.06367579  .00003127  00000+0  62057-3 0  9993",
        "tle_line2": "2 35773  74.0080   1.2963 0046155 164.2826 195.9787 14.61972013866838"
      },
      "geometry": {
        "type": "Point",
        "coordinates": [
          -150.53374338568548,
          -59.32597271994069
        ]
      }
    }
  ]
}